[Satellite]
VERSION=1.1
NAME=EUTELSAT 7 WEST A
NICKNAME=EUTELSAT 7 WEST A
TLE1=1 37816U 11051A   15055.21953204 -.00000087  00000-0  10000-3 0  9995
TLE2=2 37816   0.0724 321.8384 0002025 260.4452   3.1611  1.00270384 12540
